[{"OBJECT_NAME":"SL-8 R/B","OBJECT_ID":"1991-006B","EPOCH":"2026-04-16T02:18:17.172576","MEAN_MOTION":13.77501391,"ECCENTRICITY":0.00210035,"INCLINATION":82.9412,"RA_OF_ASC_NODE":142.2304,"ARG_OF_PERICENTER":291.7099,"MEAN_ANOMALY":86.2291,"EPHEMERIS_TYPE":0,"CLASSIFICATION_TYPE":"U","NORAD_CAT_ID":21088,"ELEMENT_SET_NO":999,"REV_AT_EPOCH":76922,"BSTAR":0.00011794374,"MEAN_MOTION_DOT":1.33e-6,"MEAN_MOTION_DDOT":0},{"OBJECT_NAME":"OKEAN-3","OBJECT_ID":"1991-039A","EPOCH":"2026-04-15T21:55:46.845696","MEAN_MOTION":15.05014811,"ECCENTRICITY":0.00138442,"INCLINATION":82.5137,"RA_OF_ASC_NODE":300.7667,"ARG_OF_PERICENTER":197.9445,"MEAN_ANOMALY":162.1295,"EPHEMERIS_TYPE":0,"CLASSIFICATION_TYPE":"U","NORAD_CAT_ID":21397,"ELEMENT_SET_NO":999,"REV_AT_EPOCH":87063,"BSTAR":6.9871103e-5,"MEAN_MOTION_DOT":1.022e-5,"MEAN_MOTION_DDOT":0},{"OBJECT_NAME":"COSMOS 2151","OBJECT_ID":"1991-042A","EPOCH":"2026-04-16T05:39:01.145088","MEAN_MOTION":15.00267871,"ECCENTRICITY":0.00107926,"INCLINATION":82.4978,"RA_OF_ASC_NODE":47.4511,"ARG_OF_PERICENTER":296.9934,"MEAN_ANOMALY":63.0188,"EPHEMERIS_TYPE":0,"CLASSIFICATION_TYPE":"U","NORAD_CAT_ID":21422,"ELEMENT_SET_NO":999,"REV_AT_EPOCH":86882,"BSTAR":9.2765011e-5,"MEAN_MOTION_DOT":1.189e-5,"MEAN_MOTION_DDOT":0},{"OBJECT_NAME":"SL-14 R/B","OBJECT_ID":"1991-042B","EPOCH":"2026-04-16T05:37:06.468096","MEAN_MOTION":14.8186544,"ECCENTRICITY":0.00184671,"INCLINATION":82.4956,"RA_OF_ASC_NODE":184.9875,"ARG_OF_PERICENTER":115.8687,"MEAN_ANOMALY":244.4433,"EPHEMERIS_TYPE":0,"CLASSIFICATION_TYPE":"U","NORAD_CAT_ID":21423,"ELEMENT_SET_NO":999,"REV_AT_EPOCH":85863,"BSTAR":2.5358134e-5,"MEAN_MOTION_DOT":2.25e-6,"MEAN_MOTION_DDOT":0},{"OBJECT_NAME":"ERS-1","OBJECT_ID":"1991-050A","EPOCH":"2026-04-16T00:35:03.850368","MEAN_MOTION":14.39477631,"ECCENTRICITY":0.00331503,"INCLINATION":98.7847,"RA_OF_ASC_NODE":125.193,"ARG_OF_PERICENTER":91.6621,"MEAN_ANOMALY":268.8364,"EPHEMERIS_TYPE":0,"CLASSIFICATION_TYPE":"U","NORAD_CAT_ID":21574,"ELEMENT_SET_NO":999,"REV_AT_EPOCH":82110,"BSTAR":6.4240483e-5,"MEAN_MOTION_DOT":1.55e-6,"MEAN_MOTION_DDOT":0},{"OBJECT_NAME":"ARIANE 40 R/B","OBJECT_ID":"1991-050F","EPOCH":"2026-04-16T03:00:18.360864","MEAN_MOTION":14.42920352,"ECCENTRICITY":0.00023455,"INCLINATION":98.1939,"RA_OF_ASC_NODE":156.9425,"ARG_OF_PERICENTER":344.4644,"MEAN_ANOMALY":15.6475,"EPHEMERIS_TYPE":0,"CLASSIFICATION_TYPE":"U","NORAD_CAT_ID":21610,"ELEMENT_SET_NO":999,"REV_AT_EPOCH":82439,"BSTAR":5.3776386e-5,"MEAN_MOTION_DOT":1.38e-6,"MEAN_MOTION_DDOT":0},{"OBJECT_NAME":"INTERCOSMOS 25","OBJECT_ID":"1991-086A","EPOCH":"2026-04-16T05:08:11.528448","MEAN_MOTION":12.12116191,"ECCENTRICITY":0.14858988,"INCLINATION":82.5991,"RA_OF_ASC_NODE":287.3149,"ARG_OF_PERICENTER":36.0697,"MEAN_ANOMALY":333.195,"EPHEMERIS_TYPE":0,"CLASSIFICATION_TYPE":"U","NORAD_CAT_ID":21819,"ELEMENT_SET_NO":999,"REV_AT_EPOCH":50123,"BSTAR":0.00015475301,"MEAN_MOTION_DOT":8.15e-6,"MEAN_MOTION_DDOT":0},{"OBJECT_NAME":"SL-8 R/B","OBJECT_ID":"1992-008B","EPOCH":"2026-04-16T07:25:14.515392","MEAN_MOTION":13.75970163,"ECCENTRICITY":0.00352201,"INCLINATION":82.9263,"RA_OF_ASC_NODE":239.79,"ARG_OF_PERICENTER":31.6633,"MEAN_ANOMALY":353.2738,"EPHEMERIS_TYPE":0,"CLASSIFICATION_TYPE":"U","NORAD_CAT_ID":21876,"ELEMENT_SET_NO":999,"REV_AT_EPOCH":71459,"BSTAR":-1.0253841e-5,"MEAN_MOTION_DOT":5.0e-8,"MEAN_MOTION_DDOT":0},{"OBJECT_NAME":"SL-8 R/B","OBJECT_ID":"1992-020B","EPOCH":"2026-04-16T06:54:58.980096","MEAN_MOTION":13.7554966,"ECCENTRICITY":0.00287719,"INCLINATION":82.9275,"RA_OF_ASC_NODE":125.839,"ARG_OF_PERICENTER":190.0478,"MEAN_ANOMALY":180.5919,"EPHEMERIS_TYPE":0,"CLASSIFICATION_TYPE":"U","NORAD_CAT_ID":21938,"ELEMENT_SET_NO":999,"REV_AT_EPOCH":70630,"BSTAR":-5.2818018e-5,"MEAN_MOTION_DOT":-3.6e-7,"MEAN_MOTION_DDOT":0},{"OBJECT_NAME":"USA 81","OBJECT_ID":"1992-023A","EPOCH":"2026-04-16T05:48:36.994176","MEAN_MOTION":14.32380057,"ECCENTRICITY":0.00012265,"INCLINATION":85.0036,"RA_OF_ASC_NODE":109.764,"ARG_OF_PERICENTER":86.1025,"MEAN_ANOMALY":274.0308,"EPHEMERIS_TYPE":0,"CLASSIFICATION_TYPE":"U","NORAD_CAT_ID":21949,"ELEMENT_SET_NO":999,"REV_AT_EPOCH":10016,"BSTAR":3.7012062e-5,"MEAN_MOTION_DOT":1.2e-6,"MEAN_MOTION_DDOT":0},{"OBJECT_NAME":"COSMOS 2219","OBJECT_ID":"1992-076A","EPOCH":"2026-04-16T05:23:09.846528","MEAN_MOTION":14.14089398,"ECCENTRICITY":0.00172984,"INCLINATION":71.0586,"RA_OF_ASC_NODE":299.6052,"ARG_OF_PERICENTER":148.2955,"MEAN_ANOMALY":211.9213,"EPHEMERIS_TYPE":0,"CLASSIFICATION_TYPE":"U","NORAD_CAT_ID":22219,"ELEMENT_SET_NO":999,"REV_AT_EPOCH":72368,"BSTAR":0.00011204804,"MEAN_MOTION_DOT":1.67e-6,"MEAN_MOTION_DDOT":0},{"OBJECT_NAME":"SL-16 R/B","OBJECT_ID":"1992-076B","EPOCH":"2026-04-16T05:53:51.165312","MEAN_MOTION":14.16866629,"ECCENTRICITY":0.00115563,"INCLINATION":70.9979,"RA_OF_ASC_NODE":109.2635,"ARG_OF_PERICENTER":28.5321,"MEAN_ANOMALY":342.524,"EPHEMERIS_TYPE":0,"CLASSIFICATION_TYPE":"U","NORAD_CAT_ID":22220,"ELEMENT_SET_NO":999,"REV_AT_EPOCH":72715,"BSTAR":8.3517814e-5,"MEAN_MOTION_DOT":1.2e-6,"MEAN_MOTION_DDOT":0},{"OBJECT_NAME":"COSMOS 2221","OBJECT_ID":"1992-080A","EPOCH":"2026-04-16T02:05:05.358912","MEAN_MOTION":14.96360995,"ECCENTRICITY":0.00155435,"INCLINATION":82.503,"RA_OF_ASC_NODE":243.2481,"ARG_OF_PERICENTER":69.5909,"MEAN_ANOMALY":290.6981,"EPHEMERIS_TYPE":0,"CLASSIFICATION_TYPE":"U","NORAD_CAT_ID":22236,"ELEMENT_SET_NO":999,"REV_AT_EPOCH":78638,"BSTAR":8.9962279e-5,"MEAN_MOTION_DOT":1.047e-5,"MEAN_MOTION_DDOT":0},{"OBJECT_NAME":"SL-16 R/B","OBJECT_ID":"1992-093B","EPOCH":"2026-04-16T04:40:10.868736","MEAN_MOTION":14.1545349,"ECCENTRICITY":0.00063985,"INCLINATION":71.02,"RA_OF_ASC_NODE":285.5326,"ARG_OF_PERICENTER":255.8217,"MEAN_ANOMALY":104.2196,"EPHEMERIS_TYPE":0,"CLASSIFICATION_TYPE":"U","NORAD_CAT_ID":22285,"ELEMENT_SET_NO":999,"REV_AT_EPOCH":71846,"BSTAR":-1.1833598e-5,"MEAN_MOTION_DOT":-7.1e-7,"MEAN_MOTION_DDOT":0},{"OBJECT_NAME":"COSMOS 2228","OBJECT_ID":"1992-094A","EPOCH":"2026-04-16T06:41:07.542528","MEAN_MOTION":14.97382354,"ECCENTRICITY":0.00182842,"INCLINATION":82.5204,"RA_OF_ASC_NODE":201.3242,"ARG_OF_PERICENTER":171.028,"MEAN_ANOMALY":189.1273,"EPHEMERIS_TYPE":0,"CLASSIFICATION_TYPE":"U","NORAD_CAT_ID":22286,"ELEMENT_SET_NO":999,"REV_AT_EPOCH":78168,"BSTAR":0.00010497196,"MEAN_MOTION_DOT":1.25e-5,"MEAN_MOTION_DDOT":0},{"OBJECT_NAME":"SL-16 R/B","OBJECT_ID":"1993-016B","EPOCH":"2026-04-16T05:43:49.359936","MEAN_MOTION":14.15314011,"ECCENTRICITY":0.00127107,"INCLINATION":71.0062,"RA_OF_ASC_NODE":136.3208,"ARG_OF_PERICENTER":267.101,"MEAN_ANOMALY":92.8658,"EPHEMERIS_TYPE":0,"CLASSIFICATION_TYPE":"U","NORAD_CAT_ID":22566,"ELEMENT_SET_NO":999,"REV_AT_EPOCH":70748,"BSTAR":-3.64845e-7,"MEAN_MOTION_DOT":-4.8e-7,"MEAN_MOTION_DDOT":0},{"OBJECT_NAME":"COSMOS 2242","OBJECT_ID":"1993-024A","EPOCH":"2026-04-16T06:39:11.181600","MEAN_MOTION":14.96715753,"ECCENTRICITY":0.0016497,"INCLINATION":82.5191,"RA_OF_ASC_NODE":230.7564,"ARG_OF_PERICENTER":174.1565,"MEAN_ANOMALY":185.9853,"EPHEMERIS_TYPE":0,"CLASSIFICATION_TYPE":"U","NORAD_CAT_ID":22626,"ELEMENT_SET_NO":999,"REV_AT_EPOCH":78601,"BSTAR":0.00010309815,"MEAN_MOTION_DOT":1.207e-5,"MEAN_MOTION_DDOT":0}]
