SL-8 R/B                
1 21088U 91006B   26106.09603209  .00000133  00000+0  11794-3 0  9990
2 21088  82.9412 142.2304 0021003 291.7099  86.2291 13.77501391769227
OKEAN-3                 
1 21397U 91039A   26105.91373664  .00001022  00000+0  69871-4 0  9996
2 21397  82.5137 300.7667 0013844 197.9445 162.1295 15.05014811870634
COSMOS 2151             
1 21422U 91042A   26106.23542992  .00001189  00000+0  92765-4 0  9999
2 21422  82.4978  47.4511 0010792 296.9934  63.0188 15.00267871868829
SL-14 R/B               
1 21423U 91042B   26106.23410264  .00000225  00000+0  25358-4 0  9990
2 21423  82.4956 184.9875 0018467 115.8687 244.4433 14.81865440858637
ERS-1                   
1 21574U 91050A   26106.02435012  .00000155  00000+0  64240-4 0  9996
2 21574  98.7847 125.1930 0033150  91.6621 268.8364 14.39477631821106
ARIANE 40 R/B           
1 21610U 91050F   26106.12521251  .00000138  00000+0  53776-4 0  9992
2 21610  98.1939 156.9425 0002345 344.4644  15.6475 14.42920352824392
INTERCOSMOS 25          
1 21819U 91086A   26106.21402232  .00000815  00000+0  15475-3 0  9994
2 21819  82.5991 287.3149 1485898  36.0697 333.1950 12.12116191501235
SL-8 R/B                
1 21876U 92008B   26106.30919578  .00000005  00000+0 -10254-4 0  9991
2 21876  82.9263 239.7900 0035220  31.6633 353.2738 13.75970163714599
SL-8 R/B                
1 21938U 92020B   26106.28818264 -.00000036  00000+0 -52818-4 0  9998
2 21938  82.9275 125.8390 0028771 190.0478 180.5919 13.75549660706305
USA 81                  
1 21949U 92023A   26106.24209484  .00000120  00000+0  37012-4 0  9998
2 21949  85.0036 109.7640 0001226  86.1025 274.0308 14.32380057100164
COSMOS 2219             
1 22219U 92076A   26106.22441952  .00000167  00000+0  11205-3 0  9999
2 22219  71.0586 299.6052 0017298 148.2955 211.9213 14.14089398723681
SL-16 R/B               
1 22220U 92076B   26106.24573108  .00000120  00000+0  83518-4 0  9998
2 22220  70.9979 109.2635 0011556  28.5321 342.5240 14.16866629727157
COSMOS 2221             
1 22236U 92080A   26106.08686758  .00001047  00000+0  89962-4 0  9996
2 22236  82.5030 243.2481 0015543  69.5909 290.6981 14.96360995786384
SL-16 R/B               
1 22285U 92093B   26106.19457024 -.00000071  00000+0 -11834-4 0  9999
2 22285  71.0200 285.5326 0006398 255.8217 104.2196 14.15453490718463
COSMOS 2228             
1 22286U 92094A   26106.27855952  .00001250  00000+0  10497-3 0  9993
2 22286  82.5204 201.3242 0018284 171.0280 189.1273 14.97382354781686
SL-16 R/B               
1 22566U 93016B   26106.23876574 -.00000048  00000+0 -36485-6 0  9992
2 22566  71.0062 136.3208 0012710 267.1010  92.8658 14.15314011707485
COSMOS 2242             
1 22626U 93024A   26106.27721275  .00001207  00000+0  10310-3 0  9991
2 22626  82.5191 230.7564 0016497 174.1565 185.9853 14.96715753786018
